OBJECT_NAME,OBJECT_ID,EPOCH,MEAN_MOTION,ECCENTRICITY,INCLINATION,RA_OF_ASC_NODE,ARG_OF_PERICENTER,MEAN_ANOMALY,EPHEMERIS_TYPE,CLASSIFICATION_TYPE,NORAD_CAT_ID,ELEMENT_SET_NO,REV_AT_EPOCH,BSTAR,MEAN_MOTION_DOT,MEAN_MOTION_DDOT
ONEWEB-0275,2021-060AC,2026-06-04T05:36:53.302464,13.16594296,.00019951,87.9107,231.3474,98.8843,261.2514,0,U,48993,999,23785,.16537927E-3,.76E-6,0
ONEWEB-0276,2021-060AD,2026-06-04T17:21:22.378752,13.16593379,.00020216,87.9104,231.2497,95.2514,264.8848,0,U,48994,999,23793,.52930366E-3,.215E-5,0
ONEWEB-0277,2021-060AE,2026-06-04T17:39:37.127232,13.16592195,.00017531,87.9099,231.2577,96.7131,263.4199,0,U,48995,999,23792,.48422575E-3,.198E-5,0
ONEWEB-0278,2021-060AF,2026-06-04T17:25:55.653312,13.16595438,.00022636,87.9108,231.2481,107.4326,252.7053,0,U,48996,999,23805,.1805059E-3,.82E-6,0
ONEWEB-0279,2021-060AG,2026-06-04T17:37:20.426880,13.16593987,.00017927,87.9099,231.2455,93.2474,266.8862,0,U,48997,999,23798,.22749552E-3,.1E-5,0
ONEWEB-0280,2021-060AH,2026-06-04T16:09:32.422752,13.16593124,.00019681,87.9102,231.2610,111.7179,248.4161,0,U,48998,999,23791,.11054565E-3,.55E-6,0
ONEWEB-0281,2021-060AJ,2026-06-04T16:17:32.838720,13.16594275,.00021486,87.9105,231.2557,103.8972,256.2398,0,U,48999,999,23798,.10142433E-3,.52E-6,0
ONEWEB-0282,2021-060AK,2026-06-04T17:00:50.714784,13.16596465,.00018614,87.9100,231.2573,100.2224,259.9117,0,U,49000,999,23796,-.12036416E-3,-.33E-6,0
ONEWEB-0283,2021-060AL,2026-06-04T05:48:16.633152,13.16593938,.00019111,87.9103,231.3502,98.8980,261.2367,0,U,49001,999,23791,-.11261609E-3,-.3E-6,0
ONEWEB-0284,2021-060AM,2026-06-04T05:39:10.048608,13.16593974,.00021095,87.9105,231.3443,108.9591,251.1768,0,U,49002,999,23789,.30011771E-4,.24E-6,0
ONEWEB-0285,2021-075A,2026-06-04T02:23:55.544352,13.12441735,.0001728,87.8949,353.2649,88.4537,271.6790,0,U,49075,999,23349,-.24714E-3,-.76E-6,0
ONEWEB-0286,2021-075B,2026-06-04T01:58:06.946176,13.12442294,.0001984,87.8940,353.2865,87.1205,273.0151,0,U,49076,999,23284,.10582E-2,.393E-5,0
ONEWEB-0287,2021-075C,2026-06-04T02:32:06.227232,13.17647992,.0002269,87.9144,8.4685,91.2477,268.8915,0,U,49077,999,23190,.10948E-3,.55E-6,0
ONEWEB-0288,2021-075D,2026-06-04T01:24:09.259200,13.12443949,.00019621,87.8949,353.2667,99.4174,260.7176,0,U,49078,999,23346,.17332358E-3,.75E-6,0
ONEWEB-0289,2021-075E,2026-06-04T16:13:14.215008,13.17648337,.00016834,87.9146,8.3699,97.1754,262.9569,0,U,49079,999,23255,-.12458926E-3,-.35E-6,0
ONEWEB-0290,2021-075F,2026-06-04T15:34:33.229344,13.17650191,.00014765,87.9150,8.3485,100.2361,259.8937,0,U,49080,999,23196,-.56477151E-4,-.9E-7,0
ONEWEB-0291,2021-075G,2026-06-04T02:27:14.693760,13.17647710,.000205,87.9146,8.4652,98.7172,261.4191,0,U,49081,999,23188,.25729E-4,.23E-6,0
ONEWEB-0293,2021-075H,2026-06-04T03:03:40.846176,13.17651075,.00017084,87.9145,8.4633,88.0565,272.0762,0,U,49082,999,23191,.32839572E-4,.26E-6,0
ONEWEB-0294,2021-075J,2026-06-04T01:33:55.491840,13.12444101,.00016546,87.8952,353.2686,100.5782,259.5533,0,U,49083,999,23285,.48700829E-3,.188E-5,0
ONEWEB-0295,2021-075K,2026-06-04T15:47:54.292128,13.17649885,.00020643,87.9136,8.3630,99.1955,260.9410,0,U,49084,999,23194,-.73763301E-3,-.274E-5,0
ONEWEB-0296,2021-075L,2026-06-04T01:04:37.956864,13.12442268,.00021396,87.8952,353.2806,87.7525,272.3848,0,U,49085,999,23285,-.14633912E-2,-.514E-5,0
ONEWEB-0297,2021-075M,2026-06-04T01:48:33.599232,13.12443239,.00019,87.8939,353.2862,91.7312,268.4034,0,U,49086,999,23346,.12417E-2,.459E-5,0
ONEWEB-0298,2021-075N,2026-06-04T01:19:26.069376,13.17650371,.00019561,87.9142,8.4796,90.6254,269.5102,0,U,49087,999,23189,.61995642E-3,.254E-5,0
ONEWEB-0299,2021-075P,2026-06-04T15:56:25.951200,13.17650561,.00019755,87.9153,8.3379,87.7993,272.3365,0,U,49088,999,23195,.86999738E-4,.47E-6,0
ONEWEB-0300,2021-075Q,2026-06-04T01:37:34.873536,13.12444430,.00020367,87.8954,353.2656,83.1466,276.9894,0,U,49089,999,23348,.7520244E-3,.283E-5,0
ONEWEB-0301,2021-075R,2026-06-04T01:14:23.861184,13.12444802,.00018464,87.8949,353.2676,78.5900,281.5436,0,U,49090,999,23284,-.53185916E-3,-.179E-5,0
ONEWEB-0302,2021-075S,2026-06-04T02:44:39.355296,13.12444021,.00016199,87.8952,353.2658,100.1426,259.9885,0,U,49091,999,23283,-.11030735E-2,-.384E-5,0
ONEWEB-0304,2021-075T,2026-06-04T02:34:32.008224,13.17647834,.00019692,87.9140,8.4722,87.2221,272.9136,0,U,49092,999,23185,.13123727E-3,.64E-6,0
ONEWEB-0305,2021-075U,2026-06-04T02:24:48.951648,13.17647963,.0002201,87.9148,8.4571,90.1746,269.9637,0,U,49093,999,23188,.41879E-4,.29E-6,0
ONEWEB-0308,2021-075V,2026-06-04T02:34:53.920992,13.12441817,.00017707,87.8951,353.2600,87.7027,272.4304,0,U,49094,999,23284,-.95039454E-3,-.329E-5,0
